NORAD_CAT_ID,OBJECT_NAME,OBJECT_TYPE,EPOCH,MEAN_MOTION,ECCENTRICITY,INCLINATION,RA_OF_ASC_NODE,ARG_OF_PERICENTER,MEAN_ANOMALY,BSTAR,MEAN_MOTION_DOT,MEAN_MOTION_DDOT,TLE_LINE0,TLE_LINE1,TLE_LINE2,SEMIMAJOR_AXIS,PERIOD,APOGEE,PERIGEE,DECAYED
51126.0,STARLINK-3386,PAYLOAD,2023-06-25 01:24:27,15.08846229,0.0001222,53.2178,57.2684,88.0891,272.0241,4.5626e-05,4.38e-06,0.0,0 STARLINK-3386,1 51126U 22005Y   23176.05865401  .00000438  00000-0  45626-4 0  9994,2 51126  53.2178  57.2684 0001222  88.0891 272.0241 15.08846229 80603,6917.861,95.437,540.572,538.881,0.0
51126.0,STARLINK-3386,PAYLOAD,2023-06-26 09:12:09,15.08850915,0.0001053,53.216,51.3226,78.6987,281.4123,9.165e-05,1.172e-05,0.0,0 STARLINK-3386,1 51126U 22005Y   23177.38344857  .00001172  00000-0  91650-4 0  9992,2 51126  53.2160  51.3226 0001053  78.6987 281.4123 15.08850915 80806,6917.847,95.437,540.44,538.984,0.0
51126.0,STARLINK-3386,PAYLOAD,2023-06-26 15:33:43,15.08834927,0.000104,53.2171,50.1337,58.0466,302.0627,0.00012446,1.693e-05,0.0,0 STARLINK-3386,1 51126U 22005Y   23177.64841881  .00001693  00000-0  12446-3 0  9993,2 51126  53.2171  50.1337 0001040  58.0466 302.0627 15.08834927 80846,6917.896,95.438,540.48,539.041,0.0
51126.0,STARLINK-3386,PAYLOAD,2023-06-27 01:06:01,15.08845394,0.0001215,53.2177,48.3476,91.9575,268.1556,7.4354e-05,8.96e-06,0.0,0 STARLINK-3386,1 51126U 22005Y   23178.04585346  .00000896  00000-0  74354-4 0  9990,2 51126  53.2177  48.3476 0001215  91.9575 268.1556 15.08845394 80906,6917.864,95.437,540.569,538.888,0.0
51126.0,STARLINK-3386,PAYLOAD,2023-06-27 20:10:39,15.08840487,0.0001357,53.2185,44.7771,98.4446,261.67,1.4349e-05,-6e-07,0.0,0 STARLINK-3386,1 51126U 22005Y   23178.84073841 -.00000060  00000-0  14349-4 0  9992,2 51126  53.2185  44.7771 0001357  98.4446 261.6700 15.08840487 81020,6917.879,95.438,540.683,538.805,0.0
51126.0,STARLINK-3386,PAYLOAD,2023-06-28 18:26:04,15.08832736,0.0001205,53.2179,40.6168,90.5756,269.5374,6.5652e-05,7.57e-06,0.0,0 STARLINK-3386,1 51126U 22005Y   23179.76810336  .00000757  00000-0  65652-4 0  9997,2 51126  53.2179  40.6168 0001205  90.5756 269.5374 15.08832736 81164,6917.903,95.438,540.601,538.934,0.0
51126.0,STARLINK-3386,PAYLOAD,2023-06-30 13:21:29,15.08836328,0.0001205,53.2185,32.5896,92.7145,267.3985,3.9229e-05,3.36e-06,0.0,0 STARLINK-3386,1 51126U 22005Y   23181.55658737  .00000336  00000-0  39229-4 0  9996,2 51126  53.2185  32.5896 0001205  92.7145 267.3985 15.08836328 81430,6917.892,95.438,540.59,538.923,0.0
51126.0,STARLINK-3386,PAYLOAD,2023-07-01 17:58:26,15.08826979,0.0001046,53.2187,27.2369,95.4748,264.6363,0.00015265,2.142e-05,0.0,0 STARLINK-3386,1 51126U 22005Y   23182.74891247  .00002142  00000-0  15265-3 0  9993,2 51126  53.2187  27.2369 0001046  95.4748 264.6363 15.08826979 81611,6917.92,95.438,540.509,539.062,0.0
51126.0,STARLINK-3386,PAYLOAD,2023-07-01 22:44:34,15.08842331,0.0001192,53.2181,26.3442,83.9845,276.1283,-1.5711e-07,-2.9e-06,0.0,0 STARLINK-3386,1 51126U 22005Y   23182.94762665 -.00000290  00000-0 -15711-6 0  9999,2 51126  53.2181  26.3442 0001192  83.9845 276.1283 15.08842331 81641,6917.873,95.437,540.563,538.914,0.0
51126.0,STARLINK-3386,PAYLOAD,2023-07-03 08:07:40,15.08841589,0.0001145,53.2176,20.0985,91.2066,268.9057,6.9797e-05,8.23e-06,0.0,0 STARLINK-3386,1 51126U 22005Y   23184.33866435  .00000823  00000-0  69797-4 0  9995,2 51126  53.2176  20.0985 0001145  91.2066 268.9057 15.08841589 81858,6917.876,95.437,540.533,538.948,0.0
51126.0,STARLINK-3386,PAYLOAD,2023-07-04 15:55:23,15.08837932,0.0001171,53.2174,14.151,89.7963,270.3163,4.7494e-05,4.68e-06,0.0,0 STARLINK-3386,1 51126U 22005Y   23185.66346579  .00000468  00000-0  47494-4 0  9999,2 51126  53.2174  14.1510 0001171  89.7963 270.3163 15.08837932 82056,6917.887,95.438,540.562,538.942,0.0
51126.0,STARLINK-3386,PAYLOAD,2023-07-04 19:06:09,15.08845446,0.0001153,53.2176,13.556,91.3436,268.7688,1.8993e-05,1.4e-07,0.0,0 STARLINK-3386,1 51126U 22005Y   23185.79594175  .00000014  00000-0  18993-4 0  9999,2 51126  53.2176  13.5560 0001153  91.3436 268.7688 15.08845446 82074,6917.864,95.437,540.526,538.931,0.0
51126.0,STARLINK-3386,PAYLOAD,2023-07-05 07:49:14,15.08837281,0.0001192,53.2175,11.1774,92.8181,267.2947,7.1362e-06,-1.74e-06,0.0,0 STARLINK-3386,1 51126U 22005Y   23186.32586671 -.00000174  00000-0  71362-5 0  9999,2 51126  53.2175  11.1774 0001192  92.8181 267.2947 15.08837281 82159,6917.889,95.438,540.578,538.929,0.0
51126.0,STARLINK-3386,PAYLOAD,2023-07-06 14:01:34,15.08837107,0.0001077,53.2177,5.5284,83.2373,276.8742,0.00012312,1.672e-05,0.0,0 STARLINK-3386,1 51126U 22005Y   23187.58442665  .00001672  00000-0  12312-3 0  9993,2 51126  53.2177   5.5284 0001077  83.2373 276.8742 15.08837107 82340,6917.889,95.438,540.499,539.009,0.0
51126.0,STARLINK-3386,PAYLOAD,2023-07-07 07:30:49,15.0883231,0.0001187,53.2176,2.2583,79.1071,281.0055,7.1364e-05,8.48e-06,0.0,0 STARLINK-3386,1 51126U 22005Y   23188.31307197  .00000848  00000-0  71364-4 0  9992,2 51126  53.2176   2.2583 0001187  79.1071 281.0055 15.08832310 82454,6917.904,95.438,540.59,538.948,0.0
51126.0,STARLINK-3386,PAYLOAD,2023-07-07 18:38:31,15.08838583,0.0001142,53.2176,0.177,74.1221,285.9896,0.00010483,1.381e-05,0.0,0 STARLINK-3386,1 51126U 22005Y   23188.77674871  .00001381  00000-0  10483-3 0  9995,2 51126  53.2176   0.1770 0001142  74.1221 285.9896 15.08838583 82524,6917.885,95.438,540.54,538.96,0.0
51126.0,STARLINK-3386,PAYLOAD,2023-07-08 20:04:41,15.08845112,0.0001099,53.2174,355.4187,85.5268,274.5849,3.6333e-05,2.91e-06,0.0,0 STARLINK-3386,1 51126U 22005Y   23189.83658731  .00000291  00000-0  36333-4 0  9992,2 51126  53.2174 355.4187 0001099  85.5268 274.5849 15.08845112 82683,6917.865,95.437,540.49,538.969,0.0
51126.0,STARLINK-3386,PAYLOAD,2023-07-09 04:01:37,15.08836121,0.0001018,53.2173,353.9313,88.4308,271.6801,-6.404e-06,-3.9e-06,0.0,0 STARLINK-3386,1 51126U 22005Y   23190.16779376 -.00000390  00000-0 -64040-5 0  9998,2 51126  53.2173 353.9313 0001018  88.4308 271.6801 15.08836121 82736,6917.892,95.438,540.461,539.053,0.0
51126.0,STARLINK-3386,PAYLOAD,2023-07-10 10:13:57,15.08836111,9.91e-05,53.2177,348.2813,88.2878,271.8228,5.9776e-05,6.64e-06,0.0,0 STARLINK-3386,1 51126U 22005Y   23191.42635443  .00000664  00000-0  59776-4 0  9995,2 51126  53.2177 348.2813 0000991  88.2878 271.8228 15.08836111 82926,6917.892,95.438,540.443,539.072,0.0
51126.0,STARLINK-3386,PAYLOAD,2023-07-12 03:33:58,15.08843566,0.0001195,53.2185,340.5515,76.6005,283.512,6.9225e-05,8.14e-06,0.0,0 STARLINK-3386,1 51126U 22005Y   23193.14858990  .00000814  00000-0  69225-4 0  9997,2 51126  53.2185 340.5515 0001195  76.6005 283.5120 15.08843566 83181,6917.869,95.437,540.561,538.908,0.0
51126.0,STARLINK-3386,PAYLOAD,2023-07-13 16:07:51,15.088347,0.000113,53.2182,333.711,85.8376,274.2746,-4.113e-05,-9.42e-06,0.0,0 STARLINK-3386,1 51126U 22005Y   23194.67211844 -.00000942  00000-0 -41130-4 0  9996,2 51126  53.2182 333.7110 0001130  85.8376 274.2746 15.08834700 83412,6917.897,95.438,540.543,538.98,0.0
51126.0,STARLINK-3386,PAYLOAD,2023-07-14 15:58:37,15.08844228,0.000115,53.2192,329.2528,90.7882,269.3242,7.9786e-05,9.82e-06,0.0,0 STARLINK-3386,1 51126U 22005Y   23195.66570970  .00000982  00000-0  79786-4 0  9994,2 51126  53.2192 329.2528 0001150  90.7882 269.3242 15.08844228 83563,6917.867,95.437,540.528,538.937,0.0
51126.0,STARLINK-3386,PAYLOAD,2023-07-15 01:30:56,15.08832961,7.45e-05,53.2202,327.4689,181.9533,178.1457,2.2904e-05,7.7e-07,0.0,0 STARLINK-3386,1 51126U 22005Y   23196.06315295  .00000077  00000-0  22904-4 0  9991,2 51126  53.2202 327.4689 0000745 181.9533 178.1457 15.08832961 83621,6917.902,95.438,540.282,539.252,0.0
51126.0,STARLINK-3386,PAYLOAD,2023-07-16 07:43:17,15.08835503,0.0001156,53.2186,321.8178,95.6594,264.453,-1.4057e-05,-5.11e-06,0.0,0 STARLINK-3386,1 51126U 22005Y   23197.32172530 -.00000511  00000-0 -14057-4 0  9999,2 51126  53.2186 321.8178 0001156  95.6594 264.4530 15.08835503 83815,6917.894,95.438,540.559,538.959,0.0
51126.0,STARLINK-3386,PAYLOAD,2023-07-16 17:15:35,15.0884511,0.000138,53.2187,320.0336,103.0377,257.077,-4.5827e-05,-1.017e-05,0.0,0 STARLINK-3386,1 51126U 22005Y   23197.71916100 -.00001017  00000-0 -45827-4 0  9992,2 51126  53.2187 320.0336 0001380 103.0377 257.0770 15.08845110 83870,6917.865,95.437,540.684,538.775,0.0
51126.0,STARLINK-3386,PAYLOAD,2023-07-17 17:06:21,15.08853886,0.0001236,53.2185,315.5727,94.8381,265.2752,0.00020898,3.041e-05,0.0,0 STARLINK-3386,1 51126U 22005Y   23198.71275080  .00003041  00000-0  20898-3 0  9995,2 51126  53.2185 315.5727 0001236  94.8381 265.2752 15.08853886 84021,6917.838,95.437,540.558,538.848,0.0
51126.0,STARLINK-3386,PAYLOAD,2023-07-18 07:24:51,15.08838545,0.0001364,53.2187,312.8967,92.0368,268.0781,0.00014674,2.048e-05,0.0,0 STARLINK-3386,1 51126U 22005Y   23199.30892421  .00002048  00000-0  14674-3 0  9996,2 51126  53.2187 312.8967 0001364  92.0368 268.0781 15.08838545 84114,6917.885,95.438,540.693,538.806,0.0
51126.0,STARLINK-3386,PAYLOAD,2023-07-19 07:15:38,15.08835527,0.0001567,53.2178,308.4373,79.6723,280.4446,-3.9357e-05,-9.14e-06,0.0,0 STARLINK-3386,1 51126U 22005Y   23200.30252877 -.00000914  00000-0 -39357-4 0  9992,2 51126  53.2178 308.4373 0001567  79.6723 280.4446 15.08835527 84266,6917.894,95.438,540.843,538.675,0.0
51126.0,STARLINK-3386,PAYLOAD,2023-07-19 18:23:20,15.08845497,0.0001183,53.218,306.3524,95.0206,265.0921,-3.9773e-05,-9.21e-06,0.0,0 STARLINK-3386,1 51126U 22005Y   23200.76620493 -.00000921  00000-0 -39773-4 0  9995,2 51126  53.2180 306.3524 0001183  95.0206 265.0921 15.08845497 84338,6917.864,95.437,540.547,538.91,0.0
51126.0,STARLINK-3386,PAYLOAD,2023-07-21 06:57:12,15.08837439,0.0001185,53.2176,299.5135,81.2135,278.8991,6.4989e-05,7.47e-06,0.0,0 STARLINK-3386,1 51126U 22005Y   23202.28972867  .00000747  00000-0  64989-4 0  9990,2 51126  53.2176 299.5135 0001185  81.2135 278.8991 15.08837439 84565,6917.888,95.438,540.573,538.933,0.0
